ONEWEB-0520             
1 54138U 22138AB  26016.57208139  .00000011  00000+0 -41762-5 0  9994
2 54138  87.9243 335.1303 0001606  71.5621 288.5686 13.19725509156826
ONEWEB-0521             
1 54139U 22138AC  26016.90852081  .00000022  00000+0  22096-4 0  9992
2 54139  87.9240 335.0475 0002022  80.2622 279.8739 13.19725137156812
ONEWEB-0522             
1 54140U 22138AD  26016.58471410  .00000133  00000+0  29882-3 0  9993
2 54140  87.9241 335.1129 0001722  74.8347 285.2976 13.19727438156811
ONEWEB-0523             
1 54141U 22138AE  26016.74417273  .00000084  00000+0  17353-3 0  9994
2 54141  87.9229 304.6516 0002183  96.3600 263.7782 13.20769076159312
ONEWEB-0524             
1 54142U 22138AF  26016.73312420  .00000077  00000+0  15697-3 0  9993
2 54142  87.9229 304.6555 0001329 109.2314 250.8964 13.20771748159311
ONEWEB-0525             
1 54143U 22138AG  26016.90693952  .00000040  00000+0  68409-4 0  9995
2 54143  87.9234 335.0668 0001627  72.2064 287.9246 13.19725422156871
ONEWEB-0526             
1 54144U 22138AH  26016.63684224 -.00000082  00000+0 -23784-3 0  9992
2 54144  87.9246 335.1110 0001663  81.3556 278.7766 13.19725162156815
ONEWEB-0529             
1 54145U 22138AJ  26016.64000031 -.00000044  00000+0 -14307-3 0  9991
2 54145  87.9232 335.1342 0001577  74.4835 285.6472 13.19725536156833
